ONEWEB-0126             
1 47272U 20100Q   24109.61173020 -.00000074  00000+0 -24199-3 0  9991
2 47272  87.8958 147.8304 0002166  96.9918 263.1456 13.12444473161135
ONEWEB-0127             
1 47273U 20100R   24109.57281651  .00000084  00000+0  19812-3 0  9992
2 47273  87.8962 147.8642 0002163  98.4602 261.6772 13.12439702161155
ONEWEB-0128             
1 47274U 20100S   24109.59506967 -.00000589  00000+0 -16723-2 0  9994
2 47274  87.8981 147.8592 0002149 103.6056 256.5312 13.12440786161176
ONEWEB-0129             
1 47275U 20100T   24109.57440859  .00000008  00000+0 -12245-4 0  9992
2 47275  87.8963 147.8344 0003642 104.2288 255.9245 13.12439951161108
ONEWEB-0130             
1 47276U 20100U   24109.52674325 -.00000299  00000+0 -86787-3 0  9999
2 47276  87.8960 147.8528 0002089 100.1941 259.9423 13.12440865161068
ONEWEB-0131             
1 47277U 20100V   24109.52358154 -.00000375  00000+0 -10787-2 0  9990
2 47277  87.8963 147.8667 0001951  98.8790 261.2559 13.12441661161104
ONEWEB-0132             
1 47278U 20100W   24109.55218706  .00000378  00000+0  10163-2 0  9991
2 47278  87.8963 147.8632 0001817  93.7579 266.3757 13.12442139161003
ONEWEB-0133             
1 47279U 20100X   24109.49182930  .00000190  00000+0  49270-3 0  9998
2 47279  87.8957 147.8767 0001900  98.9411 261.1933 13.12441555161157
